{"type":"FeatureCollection","features":[{"type":"Feature","properties":{"osm":"way/44601735","name":"Gallegos Elementary School","amenity":"school","timestamp":"2024-05-08T12:25:15Z"},"geometry":{"type":"Polygon","coordinates":[[[-95.293958,29.7332199],[-95.2932978,29.7348601],[-95.2932348,29.7348798],[-95.2915532,29.7343609],[-95.2915224,29.7343106],[-95.2919941,29.7331474],[-95.2924497,29.7332872],[-95.2926394,29.732816],[-95.293958,29.7332199]]]}},{"type":"Feature","properties":{"osm":"way/48050786","name":"Franklin Elementary School","amenity":"school","timestamp":"2025-11-08T09:12:13Z"},"geometry":{"type":"Polygon","coordinates":[[[-95.2988692,29.7393085],[-95.2988907,29.7399017],[-95.2962086,29.7390821],[-95.2964375,29.7385532],[-95.2979598,29.739026],[-95.2988692,29.7393085]]]}},{"type":"Feature","properties":{"osm":"way/53012571","name":"Holland Middle School","amenity":"school","timestamp":"2025-05-10T21:33:23Z"},"geometry":{"type":"Polygon","coordinates":[[[-95.2728662,29.7637115],[-95.2728445,29.7629899],[-95.2728338,29.7626349],[-95.2731699,29.7626304],[-95.2731599,29.7622656],[-95.2728208,29.7622664],[-95.2728029,29.7614156],[-95.2728531,29.7613378],[-95.275269,29.7612854],[-95.275342,29.7639953],[-95.273385,29.7640371],[-95.273373,29.7637065],[-95.2728662,29.7637115]]]}},{"type":"Feature","properties":{"osm":"way/53012574","name":"Pleasantville Elementary School","amenity":"school","timestamp":"2024-05-08T12:25:59Z"},"geometry":{"type":"Polygon","coordinates":[[[-95.2726863,29.7650674],[-95.272494,29.7650689],[-95.2723395,29.7650523],[-95.2719906,29.7650048],[-95.2715853,29.7649102],[-95.2712707,29.7648484],[-95.2712328,29.7630155],[-95.2726368,29.7629968],[-95.2726622,29.7640586],[-95.2726863,29.7650674]]]}},{"type":"Feature","properties":{"osm":"way/54050191","name":"Clemente Martinez Elementary School","amenity":"school","timestamp":"2025-05-17T17:49:20Z"},"geometry":{"type":"Polygon","coordinates":[[[-95.3607017,29.7913569],[-95.3585455,29.7913835],[-95.3585205,29.7898451],[-95.3602083,29.7898268],[-95.3602638,29.7898802],[-95.3603013,29.7903087],[-95.3605955,29.7908154],[-95.3607216,29.7911032],[-95.3607216,29.7912978],[-95.3607017,29.7913569]]]}},{"type":"Feature","properties":{"osm":"way/54357615","name":"Lantrip Elementary School","amenity":"school","timestamp":"2024-05-08T11:18:13Z"},"geometry":{"type":"Polygon","coordinates":[[[-95.3349233,29.7413768],[-95.3348025,29.7411901],[-95.3343335,29.7404407],[-95.3344084,29.7402611],[-95.334656,29.7396671],[-95.3364031,29.7401846],[-95.3359655,29.7412982],[-95.3356757,29.7416537],[-95.3351389,29.7414885],[-95.3350425,29.7414539],[-95.3349233,29.7413768]]]}},{"type":"Feature","properties":{"osm":"way/231661238","name":"Project Chrysalis Middle School","amenity":"school","timestamp":"2022-06-29T01:45:07Z"},"geometry":{"type":"Polygon","coordinates":[[[-95.3339402,29.7355817],[-95.3339221,29.7355996],[-95.3338911,29.7356032],[-95.3333615,29.7354508],[-95.3329846,29.735337],[-95.3328107,29.735287],[-95.3325025,29.7352231],[-95.3320947,29.7351702],[-95.3318998,29.7351511],[-95.3318862,29.7351326],[-95.3319223,29.7349228],[-95.3319811,29.7347435],[-95.3323807,29.7337596],[-95.3326357,29.7331356],[-95.3327883,29.732753],[-95.3328539,29.7327766],[-95.3328933,29.7327882],[-95.3347849,29.7333449],[-95.3348369,29.7333607],[-95.3346872,29.7337098],[-95.3344787,29.7342351],[-95.3339402,29.7355817]]]}},{"type":"Feature","properties":{"osm":"way/231661581","name":"Bruce Elementary School","amenity":"school","timestamp":"2024-10-10T21:12:56Z"},"geometry":{"type":"Polygon","coordinates":[[[-95.3428865,29.7671996],[-95.3428952,29.7660005],[-95.3414609,29.7659933],[-95.3410397,29.7660002],[-95.3410549,29.7666866],[-95.3395259,29.7666854],[-95.3395452,29.7672587],[-95.3416585,29.7672057],[-95.3428865,29.7671996]]]}},{"type":"Feature","properties":{"osm":"way/255673347","name":"Mading Elementary School","amenity":"school","timestamp":"2025-10-20T20:30:18Z"},"geometry":{"type":"Polygon","coordinates":[[[-95.3278811,29.6602548],[-95.3281289,29.660175],[-95.3284097,29.6601638],[-95.3284765,29.6601611],[-95.328528,29.6590303],[-95.3285223,29.6587823],[-95.3284951,29.6587829],[-95.3265108,29.658829],[-95.3265079,29.6602824],[-95.3273698,29.6602651],[-95.3275107,29.6602622],[-95.3278811,29.6602548]]]}},{"type":"Feature","properties":{"osm":"way/276501095","name":"Roosevelt Elementary School","amenity":"school","timestamp":"2024-10-09T14:07:07Z"},"geometry":{"type":"Polygon","coordinates":[[[-95.3751008,29.817782],[-95.375132,29.818858],[-95.3751107,29.8188758],[-95.3743712,29.8188897],[-95.3743699,29.8188631],[-95.3740442,29.8188703],[-95.3740441,29.8187706],[-95.3738199,29.8187701],[-95.373708,29.8187194],[-95.3736998,29.8186959],[-95.3730968,29.8184411],[-95.3730752,29.8184607],[-95.3724103,29.8181757],[-95.3725175,29.8181079],[-95.3725608,29.8180394],[-95.3725758,29.8179538],[-95.3725761,29.8178232],[-95.3751008,29.817782]]]}},{"type":"Feature","properties":{"osm":"way/378373556","name":"Carrillo Elementary School","amenity":"school","timestamp":"2021-04-17T11:28:41Z"},"geometry":{"type":"Polygon","coordinates":[[[-95.3121364,29.7295967],[-95.3114371,29.729383],[-95.3109939,29.7292474],[-95.3105148,29.729101],[-95.3096229,29.7288061],[-95.3097815,29.7283997],[-95.3099889,29.7278937],[-95.3100894,29.7276229],[-95.311232,29.72797],[-95.3112742,29.7278558],[-95.3118636,29.7280381],[-95.3116823,29.7284754],[-95.3123368,29.7286763],[-95.3122867,29.7288078],[-95.3122843,29.728844],[-95.3122927,29.728887],[-95.3123171,29.7289238],[-95.3123541,29.7289507],[-95.3123863,29.7289688],[-95.3121364,29.7295967]]]}},{"type":"Feature","properties":{"osm":"way/378600583","name":"Briscoe Elementary School","amenity":"school","timestamp":"2025-06-18T02:56:49Z"},"geometry":{"type":"Polygon","coordinates":[[[-95.2985053,29.730753],[-95.2989683,29.7296008],[-95.2967119,29.728887],[-95.2962721,29.7300326],[-95.2985053,29.730753]]]}},{"type":"Feature","properties":{"osm":"way/396220502","name":"Port Houston Elementary School","amenity":"school","timestamp":"2024-05-08T12:27:07Z"},"geometry":{"type":"Polygon","coordinates":[[[-95.2835741,29.7604105],[-95.2835446,29.759202],[-95.2835077,29.7591513],[-95.2822363,29.7591771],[-95.2822161,29.7591937],[-95.2822399,29.7604275],[-95.2822947,29.7604647],[-95.2835351,29.7604441],[-95.2835741,29.7604105]]]}},{"type":"Feature","properties":{"osm":"way/400863570","name":"Hobby Elementary School","amenity":"school","timestamp":"2024-05-08T11:26:01Z"},"geometry":{"type":"Polygon","coordinates":[[[-95.4380189,29.6352462],[-95.4380808,29.6355298],[-95.4381947,29.6358607],[-95.4371071,29.635879],[-95.4368002,29.6358954],[-95.4365081,29.6359301],[-95.4362758,29.6359852],[-95.4362713,29.6357232],[-95.4362475,29.6347148],[-95.4362344,29.6341612],[-95.4367029,29.6341554],[-95.4369843,29.6341765],[-95.4370821,29.6341948],[-95.4372047,29.6342227],[-95.437326,29.6342503],[-95.4374557,29.6342884],[-95.4376703,29.6343609],[-95.4377576,29.6343899],[-95.4380105,29.6344653],[-95.437989,29.6346187],[-95.4379836,29.6347347],[-95.4379924,29.6349922],[-95.4379932,29.6350499],[-95.4380189,29.6352462]]]}},{"type":"Feature","properties":{"osm":"way/400879321","name":"Audrey H Lawson Middle School","amenity":"school","timestamp":"2025-08-18T21:53:10Z"},"geometry":{"type":"Polygon","coordinates":[[[-95.4539508,29.623791],[-95.4517513,29.6238161],[-95.4516855,29.6195172],[-95.4522565,29.6194631],[-95.4526567,29.6194692],[-95.4533002,29.619586],[-95.453882,29.6197697],[-95.4539508,29.623791]]]}},{"type":"Feature","properties":{"osm":"way/585213330","name":"Ross Elementary School","amenity":"school","timestamp":"2024-05-08T12:27:41Z"},"geometry":{"type":"Polygon","coordinates":[[[-95.340498,29.8015498],[-95.340498,29.8003609],[-95.3420892,29.8003609],[-95.3420749,29.8018351],[-95.3420146,29.8019001],[-95.340498,29.8015498]]]}},{"type":"Feature","properties":{"osm":"way/610628265","name":"Fleming Middle School","amenity":"school","timestamp":"2024-05-08T12:27:53Z"},"geometry":{"type":"Polygon","coordinates":[[[-95.3197904,29.79352],[-95.3197729,29.7926591],[-95.3197608,29.792552],[-95.3197421,29.7924752],[-95.3197283,29.7923667],[-95.3196767,29.7912031],[-95.3212975,29.7911871],[-95.3212991,29.7912136],[-95.3219506,29.7912116],[-95.3219911,29.7937938],[-95.3214195,29.7936452],[-95.3212626,29.7936126],[-95.3208857,29.7935416],[-95.3206993,29.7935172],[-95.3204396,29.7935148],[-95.3197904,29.79352]]]}},{"type":"Feature","properties":{"osm":"way/670541164","name":"Burrus Elementary School","amenity":"school","timestamp":"2025-08-27T00:03:51Z"},"geometry":{"type":"Polygon","coordinates":[[[-95.3910405,29.8165393],[-95.39104,29.8166087],[-95.3910398,29.8169672],[-95.3910617,29.8180372],[-95.389803,29.8180495],[-95.3897889,29.8165621],[-95.3910405,29.8165393]]]}},{"type":"Feature","properties":{"osm":"way/957220178","name":"McReynolds Middle School","amenity":"school","timestamp":"2024-05-08T12:28:54Z"},"geometry":{"type":"Polygon","coordinates":[[[-95.3110689,29.7726939],[-95.3110941,29.7703164],[-95.3123708,29.7703266],[-95.3123456,29.7727041],[-95.3110689,29.7726939]]]}},{"type":"Feature","properties":{"osm":"way/1256914415","name":null,"amenity":"school","timestamp":"2025-07-02T17:24:41Z"},"geometry":{"type":"Polygon","coordinates":[[[-95.3348139,29.778802],[-95.3341052,29.7788155],[-95.3340758,29.7760764],[-95.3341146,29.7760077],[-95.3355825,29.7759881],[-95.3356584,29.7760483],[-95.3356826,29.7777485],[-95.3356197,29.7777906],[-95.3347981,29.7778033],[-95.3348139,29.778802]]]}},{"type":"Feature","properties":{"osm":"way/1330756885","name":"Nathaniel Q. Henderson Elementary School","amenity":"school","timestamp":"2024-11-04T21:53:37Z"},"geometry":{"type":"Polygon","coordinates":[[[-95.3218263,29.7702826],[-95.321176,29.7702867],[-95.321161,29.7685161],[-95.3218117,29.7685121],[-95.321812,29.7685832],[-95.3218137,29.7687561],[-95.3218143,29.7687784],[-95.3218169,29.7691609],[-95.3218173,29.7693413],[-95.3218263,29.7702826]]]}},{"type":"Feature","properties":{"osm":"way/1443567560","name":null,"amenity":"school","timestamp":"2025-10-20T20:30:18Z"},"geometry":{"type":"Polygon","coordinates":[[[-95.3304783,29.6684153],[-95.3304213,29.6666043],[-95.328832,29.6666369],[-95.3287593,29.6667026],[-95.328801,29.6681954],[-95.329725,29.6683505],[-95.3304783,29.6684153]]]}}]}