{"type":"FeatureCollection","features":[{"type":"Feature","geometry":{"type":"Point","coordinates":[-95.48748,29.648731]},"properties":{"Campus_Nbr":105,"Campus_Sho":"Anderson ES","Street_Add":"5727 Ludington Dr","Grades_Tau":"EE, PK, KG, 1, 2, 3, 4, 5","Division":"WEST"}},{"type":"Feature","geometry":{"type":"Point","coordinates":[-95.388405,29.737208]},"properties":{"Campus_Nbr":478,"Campus_Sho":"Arabic Immersion","Street_Add":"4001 Stanford St","Grades_Tau":"PK,KG,1,2,3,4,5,6,7,8","Division":"CENTRAL"}},{"type":"Feature","geometry":{"type":"Point","coordinates":[-95.41849,29.600188]},"properties":{"Campus_Nbr":104,"Campus_Sho":"Almeda ES","Street_Add":"14226 Almeda School Rd","Grades_Tau":"EE, PK, KG, 1, 2, 3, 4, 5","Division":"SOUTH"}},{"type":"Feature","geometry":{"type":"Point","coordinates":[-95.59739,29.746461]},"properties":{"Campus_Nbr":273,"Campus_Sho":"Ashford ES","Street_Add":"1815 Shannon Vly Dr","Grades_Tau":"EE, PK, KG, 1, 2, 3, 4, 5","Division":"WEST"}},{"type":"Feature","geometry":{"type":"Point","coordinates":[-95.32201,29.779769]},"properties":{"Campus_Nbr":106,"Campus_Sho":"Atherton ES","Street_Add":"2011 Solo St","Grades_Tau":"EE, PK, KG, 1, 2, 3, 4, 5","Division":"CENTRAL"}},{"type":"Feature","geometry":{"type":"Point","coordinates":[-95.36337,29.668158]},"properties":{"Campus_Nbr":41,"Campus_Sho":"Attucks MS","Street_Add":"4330 Bellfort Blvd","Grades_Tau":"6,7,8","Division":"SOUTH"}},{"type":"Feature","geometry":{"type":"Point","coordinates":[-95.399086,29.747385]},"properties":{"Campus_Nbr":259,"Campus_Sho":"Baker Montessori","Street_Add":"2100 Yupon St","Grades_Tau":"EE,PK,KG,1,2,3,4,5,6,7,8","Division":"CENTRAL"}},{"type":"Feature","geometry":{"type":"Point","coordinates":[-95.577332,29.752215]},"properties":{"Campus_Nbr":274,"Campus_Sho":"Askew ES","Street_Add":"11200 Wood Lodge Dr","Grades_Tau":"EE, PK, KG, 1, 2, 3, 4, 5","Division":"WEST"}},{"type":"Feature","geometry":{"type":"Point","coordinates":[-95.331954,29.732049]},"properties":{"Campus_Nbr":1,"Campus_Sho":"Austin HS","Street_Add":"1700 Dumble","Grades_Tau":"9,10,11,12","Division":"CENTRAL"}},{"type":"Feature","geometry":{"type":"Point","coordinates":[-95.370359,29.874734]},"properties":{"Campus_Nbr":107,"Campus_Sho":"Barrick ES","Street_Add":"12001 Winfrey Ln","Grades_Tau":"EE, PK, KG, 1, 2, 3, 4, 5","Division":"NORTH"}},{"type":"Feature","geometry":{"type":"Point","coordinates":[-95.32962,29.667401]},"properties":{"Campus_Nbr":102,"Campus_Sho":"Alcott ES","Street_Add":"5859 Bellfort","Grades_Tau":"EE,PK,KG,1,2,3,4,5","Division":"SOUTH"}},{"type":"Feature","geometry":{"type":"Point","coordinates":[-95.549248,29.643991]},"properties":{"Campus_Nbr":151,"Campus_Sho":"Bell ES","Street_Add":"12323 Shaftsbury Dr","Grades_Tau":"EE, PK, KG, 1, 2, 3, 4, 5","Division":"WEST"}},{"type":"Feature","geometry":{"type":"Point","coordinates":[-95.362971,29.732406]},"properties":{"Campus_Nbr":467,"Campus_Sho":"Baylor College MS","Street_Add":"2610 Elgin St","Grades_Tau":"6, 7, 8","Division":"SOUTH"}},{"type":"Feature","geometry":{"type":"Point","coordinates":[-95.344695,29.753164]},"properties":{"Campus_Nbr":234,"Campus_Sho":"BCM Biotech Acad at Rusk","Street_Add":"2805 Garrow St","Grades_Tau":"6, 7, 8","Division":"CENTRAL"}},{"type":"Feature","geometry":{"type":"Point","coordinates":[-95.469337,29.692116]},"properties":{"Campus_Nbr":2,"Campus_Sho":"Bellaire HS","Street_Add":"5100 Maple","Grades_Tau":"9, 10, 11, 12","Division":"WEST"}},{"type":"Feature","geometry":{"type":"Point","coordinates":[-95.492153,29.717307]},"properties":{"Campus_Nbr":295,"Campus_Sho":"Benavidez ES","Street_Add":"6262 Gulfton St","Grades_Tau":"EE, PK, KG, 1, 2, 3, 4, 5","Division":"WEST"}},{"type":"Feature","geometry":{"type":"Point","coordinates":[-95.481328,29.826693]},"properties":{"Campus_Nbr":268,"Campus_Sho":"Benbrook ES","Street_Add":"4026 Bolin Rd","Grades_Tau":"EE, PK, KG, 1, 2, 3, 4, 5","Division":"NORTH"}},{"type":"Feature","geometry":{"type":"Point","coordinates":[-95.350342,29.836714]},"properties":{"Campus_Nbr":109,"Campus_Sho":"Berry ES","Street_Add":"2310 Berry Rd","Grades_Tau":"EE, PK, KG, 1, 2, 3, 4, 5","Division":"NORTH"}},{"type":"Feature","geometry":{"type":"Point","coordinates":[-95.349282,29.668228]},"properties":{"Campus_Nbr":108,"Campus_Sho":"Bastian ES","Street_Add":"5051 Bellfort","Grades_Tau":"EE, PK, KG, 1, 2, 3, 4, 5","Division":"SOUTH"}},{"type":"Feature","geometry":{"type":"Point","coordinates":[-95.439692,29.828548]},"properties":{"Campus_Nbr":42,"Campus_Sho":"Black MS","Street_Add":"1575 Chantilly","Grades_Tau":"6, 7, 8","Division":"NORTH"}},{"type":"Feature","geometry":{"type":"Point","coordinates":[-95.283758,29.672863]},"properties":{"Campus_Nbr":360,"Campus_Sho":"Bellfort ECC","Street_Add":"7647 Bellfort","Grades_Tau":"EE, PK, KG","Division":"SOUTH"}},{"type":"Feature","geometry":{"type":"Point","coordinates":[-95.260361,29.676467]},"properties":{"Campus_Nbr":112,"Campus_Sho":"Bonner ES","Street_Add":"8100 Elrod St","Grades_Tau":"EE, PK, KG, 1, 2, 3, 4, 5","Division":"SOUTH"}},{"type":"Feature","geometry":{"type":"Point","coordinates":[-95.362281,29.729267]},"properties":{"Campus_Nbr":110,"Campus_Sho":"Blackshear ES","Street_Add":"2900 Holman Ave","Grades_Tau":"EE, PK, KG, 1, 2, 3, 4, 5","Division":"SOUTH"}},{"type":"Feature","geometry":{"type":"Point","coordinates":[-95.51921,29.687872]},"properties":{"Campus_Nbr":111,"Campus_Sho":"Bonham ES","Street_Add":"8302 Braes River Dr","Grades_Tau":"EE, PK, KG, 1, 2, 3, 4, 5","Division":"WEST"}},{"type":"Feature","geometry":{"type":"Point","coordinates":[-95.490958,29.749234]},"properties":{"Campus_Nbr":116,"Campus_Sho":"Briargrove ES","Street_Add":"6145 San Felipe St","Grades_Tau":"EE, PK, KG, 1, 2, 3, 4, 5","Division":"WEST"}},{"type":"Feature","geometry":{"type":"Point","coordinates":[-95.512719,29.726188]},"properties":{"Campus_Nbr":344,"Campus_Sho":"Briarmeadow","Street_Add":"3601 Dunvale","Grades_Tau":"EE, PK, KG, 1, 2, 3, 4, 5, 6, 7, 8","Division":"WEST"}},{"type":"Feature","geometry":{"type":"Point","coordinates":[-95.487803,29.695683]},"properties":{"Campus_Nbr":114,"Campus_Sho":"Braeburn ES","Street_Add":"5550 Pine St","Grades_Tau":"EE, PK, KG, 1, 2, 3, 4, 5","Division":"WEST"}},{"type":"Feature","geometry":{"type":"Point","coordinates":[-95.341978,29.766707]},"properties":{"Campus_Nbr":121,"Campus_Sho":"Bruce ES","Street_Add":"510 Jensen Dr","Grades_Tau":"EE, PK, KG, 1, 2, 3, 4, 5","Division":"CENTRAL"}},{"type":"Feature","geometry":{"type":"Point","coordinates":[-95.378566,29.797274]},"properties":{"Campus_Nbr":120,"Campus_Sho":"Browning ES","Street_Add":"607 Northwood St","Grades_Tau":"EE, PK, KG, 1, 2, 3, 4, 5","Division":"CENTRAL"}},{"type":"Feature","geometry":{"type":"Point","coordinates":[-95.373031,29.845086]},"properties":{"Campus_Nbr":122,"Campus_Sho":"Burbank ES","Street_Add":"216 Tidwell","Grades_Tau":"EE, PK, KG, 1, 2, 3, 4, 5","Division":"NORTH"}},{"type":"Feature","geometry":{"type":"Point","coordinates":[-95.315047,29.698214]},"properties":{"Campus_Nbr":119,"Campus_Sho":"Brookline ES","Street_Add":"6301 S Loop E","Grades_Tau":"EE, PK, KG, 1, 2, 3, 4, 5","Division":"SOUTH"}},{"type":"Feature","geometry":{"type":"Point","coordinates":[-95.370651,29.838672]},"properties":{"Campus_Nbr":43,"Campus_Sho":"Burbank MS","Street_Add":"315 Berry Rd","Grades_Tau":"6, 7, 8","Division":"NORTH"}},{"type":"Feature","geometry":{"type":"Point","coordinates":[-95.297524,29.729855]},"properties":{"Campus_Nbr":117,"Campus_Sho":"Briscoe ES","Street_Add":"321 Forest Hill","Grades_Tau":"EE,PK,KG,1,2,3,4,5","Division":"CENTRAL"}},{"type":"Feature","geometry":{"type":"Point","coordinates":[-95.318343,29.746023]},"properties":{"Campus_Nbr":124,"Campus_Sho":"Burnet ES","Street_Add":"5403 Canal St","Grades_Tau":"EE, KG, 1, 2, 3, 4, 5","Division":"CENTRAL"}},{"type":"Feature","geometry":{"type":"Point","coordinates":[-95.33371,29.734786]},"properties":{"Campus_Nbr":287,"Campus_Sho":"Cage ES","Street_Add":"4528 Leeland St","Grades_Tau":"EE, PK, KG, 1, 2, 3, 4, 5","Division":"CENTRAL"}},{"type":"Feature","geometry":{"type":"Point","coordinates":[-95.384719,29.754582]},"properties":{"Campus_Nbr":322,"Campus_Sho":"Carnegie HS","Street_Add":"1501 Taft","Grades_Tau":"9,10,11,12","Division":"CENTRAL"}},{"type":"Feature","geometry":{"type":"Point","coordinates":[-95.632334,29.759438]},"properties":{"Campus_Nbr":275,"Campus_Sho":"Bush ES","Street_Add":"13800 Westerloch Dr","Grades_Tau":"EE, PK, KG, 1, 2, 3, 4, 5","Division":"WEST"}},{"type":"Feature","geometry":{"type":"Point","coordinates":[-95.310667,29.728534]},"properties":{"Campus_Nbr":292,"Campus_Sho":"Carrillo ES","Street_Add":"960 S Wayside Dr","Grades_Tau":"EE, PK, KG, 1, 2, 3, 4, 5","Division":"CENTRAL"}},{"type":"Feature","geometry":{"type":"Point","coordinates":[-95.254579,29.686907]},"properties":{"Campus_Nbr":27,"Campus_Sho":"Chavez HS","Street_Add":"8501 Howard","Grades_Tau":"9, 10, 11, 12","Division":"SOUTH"}},{"type":"Feature","geometry":{"type":"Point","coordinates":[-95.390265,29.817096]},"properties":{"Campus_Nbr":125,"Campus_Sho":"Burrus ES","Street_Add":"701 E 33rd St","Grades_Tau":"EE, PK, KG, 1, 2, 3, 4, 5","Division":"NORTH"}},{"type":"Feature","geometry":{"type":"Point","coordinates":[-95.345711,29.634026]},"properties":{"Campus_Nbr":123,"Campus_Sho":"Codwell ES","Street_Add":"5225 Tavenor Ln","Grades_Tau":"EE, PK, KG, 1, 2, 3, 4, 5","Division":"SOUTH"}},{"type":"Feature","geometry":{"type":"Point","coordinates":[-95.328447,29.732183]},"properties":{"Campus_Nbr":13,"Campus_Sho":"Community Services","Street_Add":"1102 Telephone Rd","Grades_Tau":"EE, PK, KG, 1, 2, 3, 4, 5, 6, 7, 8, 9, 10, 11, 12","Division":"CENTRAL"}},{"type":"Feature","geometry":{"type":"Point","coordinates":[-95.333551,29.734838]},"properties":{"Campus_Nbr":71,"Campus_Sho":"Chrysalis MS","Street_Add":"4528 Leeland","Grades_Tau":"6, 7, 8","Division":"CENTRAL"}},{"type":"Feature","geometry":{"type":"Point","coordinates":[-95.478951,29.842574]},"properties":{"Campus_Nbr":48,"Campus_Sho":"Clifton MS","Street_Add":"6001 Golden Forest Dr","Grades_Tau":"6, 7, 8","Division":"NORTH"}},{"type":"Feature","geometry":{"type":"Point","coordinates":[-95.457821,29.721411]},"properties":{"Campus_Nbr":323,"Campus_Sho":"Challenge EC HS","Street_Add":"5601 W Loop S","Grades_Tau":"9, 10, 11, 12","Division":"CENTRAL"}},{"type":"Feature","geometry":{"type":"Point","coordinates":[-95.467306,29.703144]},"properties":{"Campus_Nbr":130,"Campus_Sho":"Condit ES","Street_Add":"7000 S Third","Grades_Tau":"EE, PK, KG, 1, 2, 3, 4, 5","Division":"WEST"}},{"type":"Feature","geometry":{"type":"Point","coordinates":[-95.29442,29.678029]},"properties":{"Campus_Nbr":133,"Campus_Sho":"Cornelius ES","Street_Add":"7475 Westover St","Grades_Tau":"EE, PK, KG, 1, 2, 3, 4, 5","Division":"SOUTH"}},{"type":"Feature","geometry":{"type":"Point","coordinates":[-95.319546,29.824208]},"properties":{"Campus_Nbr":358,"Campus_Sho":"Cook ES","Street_Add":"7115 Lockwood","Grades_Tau":"EE, PK, KG, 1, 2, 3, 4, 5","Division":"NORTH"}},{"type":"Feature","geometry":{"type":"Point","coordinates":[-95.288535,29.699376]},"properties":{"Campus_Nbr":290,"Campus_Sho":"Crespo ES","Street_Add":"7500 Office City Dr","Grades_Tau":"EE, PK, KG, 1, 2, 3, 4, 5","Division":"SOUTH"}},{"type":"Feature","geometry":{"type":"Point","coordinates":[-95.380216,29.774019]},"properties":{"Campus_Nbr":135,"Campus_Sho":"Crockett ES","Street_Add":"2112 Crockett St","Grades_Tau":"EE, PK, KG, 1, 2, 3, 4, 5","Division":"CENTRAL"}},{"type":"Feature","geometry":{"type":"Point","coordinates":[-95.348757,29.858708]},"properties":{"Campus_Nbr":132,"Campus_Sho":"Coop ES","Street_Add":"10130 Aldine Westfield Rd","Grades_Tau":"EE, PK, KG, 1, 2, 3, 4, 5","Division":"NORTH"}},{"type":"Feature","geometry":{"type":"Point","coordinates":[-95.363887,29.69105]},"properties":{"Campus_Nbr":44,"Campus_Sho":"Cullen MS","Street_Add":"6900 Scott St","Grades_Tau":"6, 7, 8","Division":"SOUTH"}},{"type":"Feature","geometry":{"type":"Point","coordinates":[-95.468756,29.717972]},"properties":{"Campus_Nbr":136,"Campus_Sho":"Cunningham ES","Street_Add":"5100 Gulfton St","Grades_Tau":"EE, PK, KG, 1, 2, 3, 4, 5","Division":"WEST"}},{"type":"Feature","geometry":{"type":"Point","coordinates":[-95.306521,29.781268]},"properties":{"Campus_Nbr":466,"Campus_Sho":"DAEP EL","Street_Add":"6411 Laredo St","Grades_Tau":"KG, 1, 2, 3, 4, 5","Division":"CENTRAL"}},{"type":"Feature","geometry":{"type":"Point","coordinates":[-95.284863,29.71395]},"properties":{"Campus_Nbr":297,"Campus_Sho":"Davila ES","Street_Add":"7610 Dahlia St","Grades_Tau":"EE, PK, KG, 1, 2, 3, 4, 5","Division":"SOUTH"}},{"type":"Feature","geometry":{"type":"Point","coordinates":[-95.279185,29.704338]},"properties":{"Campus_Nbr":45,"Campus_Sho":"Deady MS","Street_Add":"2500 Broadway St","Grades_Tau":"6, 7, 8","Division":"SOUTH"}},{"type":"Feature","geometry":{"type":"Point","coordinates":[-95.27946,29.624828]},"properties":{"Campus_Nbr":383,"Campus_Sho":"DeAnda ES","Street_Add":"7980 Almeda Genoa Rd","Grades_Tau":"EE, PK, KG, 1, 2, 3, 4, 5","Division":"SOUTH"}},{"type":"Feature","geometry":{"type":"Point","coordinates":[-95.37702,29.860997]},"properties":{"Campus_Nbr":137,"Campus_Sho":"De Chaumes ES","Street_Add":"155 Cooper","Grades_Tau":"EE, PK, KG, 1, 2, 3, 4, 5","Division":"NORTH"}},{"type":"Feature","geometry":{"type":"Point","coordinates":[-95.28901,29.737372]},"properties":{"Campus_Nbr":138,"Campus_Sho":"DeZavala ES","Street_Add":"7521 Avenue H","Grades_Tau":"EE,PK,KG,1,2,3,4,5","Division":"SOUTH"}},{"type":"Feature","geometry":{"type":"Point","coordinates":[-95.328283,29.785189]},"properties":{"Campus_Nbr":140,"Campus_Sho":"Dogan ES","Street_Add":"4202 Liberty Rd","Grades_Tau":"EE, PK, KG, 1, 2, 3, 4, 5","Division":"CENTRAL"}},{"type":"Feature","geometry":{"type":"Point","coordinates":[-95.408407,29.705241]},"properties":{"Campus_Nbr":26,"Campus_Sho":"DeBakey HS","Street_Add":"2545 Pressler","Grades_Tau":"9, 10, 11, 12","Division":"CENTRAL"}},{"type":"Feature","geometry":{"type":"Point","coordinates":[-95.417085,29.835584]},"properties":{"Campus_Nbr":115,"Campus_Sho":"Durham ES","Street_Add":"4803 Brinkman St","Grades_Tau":"EE, PK, KG, 1, 2, 3, 4, 5","Division":"NORTH"}},{"type":"Feature","geometry":{"type":"Point","coordinates":[-95.333538,29.751972]},"properties":{"Campus_Nbr":345,"Campus_Sho":"East EC HS","Street_Add":"220 N Milby St","Grades_Tau":"9, 10, 11, 12","Division":"CENTRAL"}},{"type":"Feature","geometry":{"type":"Point","coordinates":[-95.392191,29.866661]},"properties":{"Campus_Nbr":144,"Campus_Sho":"Durkee ES","Street_Add":"7301 Nordling","Grades_Tau":"EE, PK, KG, 1, 2, 3, 4, 5","Division":"NORTH"}},{"type":"Feature","geometry":{"type":"Point","coordinates":[-95.300642,29.741965]},"properties":{"Campus_Nbr":46,"Campus_Sho":"Edison MS","Street_Add":"6901 Ave I","Grades_Tau":"6, 7, 8","Division":"CENTRAL"}},{"type":"Feature","geometry":{"type":"Point","coordinates":[-95.328521,29.735592]},"properties":{"Campus_Nbr":301,"Campus_Sho":"Eastwood Acad HS","Street_Add":"1315 Dumble","Grades_Tau":"9, 10, 11, 12","Division":"CENTRAL"}},{"type":"Feature","geometry":{"type":"Point","coordinates":[-95.501617,29.671456]},"properties":{"Campus_Nbr":148,"Campus_Sho":"Elrod ES","Street_Add":"6230 Dumfries Dr","Grades_Tau":"EE, PK, KG, 1, 2, 3, 4, 5","Division":"WEST"}},{"type":"Feature","geometry":{"type":"Point","coordinates":[-95.615622,29.753887]},"properties":{"Campus_Nbr":396,"Campus_Sho":"Daily ES","Street_Add":"12909 Briar Forest","Grades_Tau":"EE, PK, KG, 1, 2, 3, 4, 5","Division":"WEST"}},{"type":"Feature","geometry":{"type":"Point","coordinates":[-95.306521,29.781268]},"properties":{"Campus_Nbr":147,"Campus_Sho":"Eliot ES","Street_Add":"6411 Laredo St","Grades_Tau":"EE, PK, KG, 1, 2, 3, 4, 5","Division":"CENTRAL"}},{"type":"Feature","geometry":{"type":"Point","coordinates":[-95.533849,29.726615]},"properties":{"Campus_Nbr":149,"Campus_Sho":"Emerson ES","Street_Add":"9533 Skyline Dr","Grades_Tau":"EE, PK, KG, 1, 2, 3, 4, 5","Division":"WEST"}},{"type":"Feature","geometry":{"type":"Point","coordinates":[-95.507455,29.691423]},"properties":{"Campus_Nbr":321,"Campus_Sho":"ENERGIZED FOR STEM ACADEMY HS","Street_Add":"7055 Beechnut St","Grades_Tau":"9, 10, 11, 12","Division":"WEST"}},{"type":"Feature","geometry":{"type":"Point","coordinates":[-95.490288,29.69779]},"properties":{"Campus_Nbr":350,"Campus_Sho":"Energized ECC","Street_Add":"7419 Ashcroft","Grades_Tau":"PK","Division":"WEST"}},{"type":"Feature","geometry":{"type":"Point","coordinates":[-95.490931,29.69528]},"properties":{"Campus_Nbr":364,"Campus_Sho":"Energized ES","Street_Add":"6201 Bissonnet","Grades_Tau":"KG, 1, 2, 3, 4, 5","Division":"WEST"}},{"type":"Feature","geometry":{"type":"Point","coordinates":[-95.507722,29.690992]},"properties":{"Campus_Nbr":390,"Campus_Sho":"ENERGIZED FOR STEM ACADEMY MS","Street_Add":"7055 Beechnut","Grades_Tau":"6, 7, 8","Division":"WEST"}},{"type":"Feature","geometry":{"type":"Point","coordinates":[-95.275917,29.809242]},"properties":{"Campus_Nbr":475,"Campus_Sho":"Elmore ES","Street_Add":"8200 Tate St","Grades_Tau":"EE,1,2,3,4,5,PK,KG","Division":"NORTH"}},{"type":"Feature","geometry":{"type":"Point","coordinates":[-95.489394,29.695495]},"properties":{"Campus_Nbr":342,"Campus_Sho":"Energized MS","Street_Add":"6107 Bissonnet","Grades_Tau":"6, 7, 8","Division":"WEST"}},{"type":"Feature","geometry":{"type":"Point","coordinates":[-95.359089,29.714801]},"properties":{"Campus_Nbr":468,"Campus_Sho":"Energy Inst HS","Street_Add":"3501 Southmore Blvd","Grades_Tau":"9, 10, 11, 12","Division":"SOUTH"}},{"type":"Feature","geometry":{"type":"Point","coordinates":[-95.388771,29.801284]},"properties":{"Campus_Nbr":152,"Campus_Sho":"Field ES","Street_Add":"703 E 17th St","Grades_Tau":"EE, PK, KG, 1, 2, 3, 4, 5","Division":"CENTRAL"}},{"type":"Feature","geometry":{"type":"Point","coordinates":[-95.320729,29.792942]},"properties":{"Campus_Nbr":78,"Campus_Sho":"Fleming MS","Street_Add":"4910 Collingsworth St","Grades_Tau":"6, 7, 8","Division":"CENTRAL"}},{"type":"Feature","geometry":{"type":"Point","coordinates":[-95.39235,29.865168]},"properties":{"Campus_Nbr":352,"Campus_Sho":"Farias ECC","Street_Add":"515 E Rittenhouse","Grades_Tau":"EE, PK","Division":"NORTH"}},{"type":"Feature","geometry":{"type":"Point","coordinates":[-95.498506,29.639378]},"properties":{"Campus_Nbr":271,"Campus_Sho":"Foerster ES","Street_Add":"14200 Fonmeadow Dr","Grades_Tau":"EE, PK, KG, 1, 2, 3, 4, 5","Division":"WEST"}},{"type":"Feature","geometry":{"type":"Point","coordinates":[-95.498384,29.628218]},"properties":{"Campus_Nbr":153,"Campus_Sho":"Fondren ES","Street_Add":"12405 Carlsbad St","Grades_Tau":"EE, PK, KG, 1, 2, 3, 4, 5","Division":"SOUTH"}},{"type":"Feature","geometry":{"type":"Point","coordinates":[-95.264577,29.854222]},"properties":{"Campus_Nbr":470,"Campus_Sho":"Fonwood ECC","Street_Add":"9709 Mesa Dr","Grades_Tau":"EE, PK, KG","Division":"NORTH"}},{"type":"Feature","geometry":{"type":"Point","coordinates":[-95.294064,29.850329]},"properties":{"Campus_Nbr":476,"Campus_Sho":"Forest Brook MS","Street_Add":"7525 Tidwell Rd","Grades_Tau":"6, 7, 8","Division":"NORTH"}},{"type":"Feature","geometry":{"type":"Point","coordinates":[-95.360375,29.692325]},"properties":{"Campus_Nbr":154,"Campus_Sho":"Foster ES","Street_Add":"3919 Ward St","Grades_Tau":"EE, PK, KG, 1, 2, 3, 4, 5","Division":"SOUTH"}},{"type":"Feature","geometry":{"type":"Point","coordinates":[-95.389398,29.87126]},"properties":{"Campus_Nbr":47,"Campus_Sho":"Fonville MS","Street_Add":"725 E Little York Rd","Grades_Tau":"6, 7, 8","Division":"NORTH"}},{"type":"Feature","geometry":{"type":"Point","coordinates":[-95.297926,29.739285]},"properties":{"Campus_Nbr":155,"Campus_Sho":"Franklin ES","Street_Add":"7101 Canal St","Grades_Tau":"EE,PK,KG,1,2,3,4,5","Division":"CENTRAL"}},{"type":"Feature","geometry":{"type":"Point","coordinates":[-95.292908,29.733722]},"properties":{"Campus_Nbr":291,"Campus_Sho":"Gallegos ES","Street_Add":"7415 Harrisburg Blvd","Grades_Tau":"EE,PK,KG,1,2,3,4,5","Division":"CENTRAL"}},{"type":"Feature","geometry":{"type":"Point","coordinates":[-95.336147,29.620059]},"properties":{"Campus_Nbr":156,"Campus_Sho":"Frost ES","Street_Add":"5002 Almeda-Genoa Rd","Grades_Tau":"EE, PK, KG, 1, 2, 3, 4, 5","Division":"SOUTH"}},{"type":"Feature","geometry":{"type":"Point","coordinates":[-95.249744,29.779411]},"properties":{"Campus_Nbr":4,"Campus_Sho":"Furr HS","Street_Add":"520 Mercury","Grades_Tau":"9, 10, 11, 12","Division":"CENTRAL"}},{"type":"Feature","geometry":{"type":"Point","coordinates":[-95.413842,29.822604]},"properties":{"Campus_Nbr":157,"Campus_Sho":"Garden Oaks","Street_Add":"901 Sue Barnett Dr","Grades_Tau":"EE,PK,KG,1,2,3,4,5,6,7,8","Division":"NORTH"}},{"type":"Feature","geometry":{"type":"Point","coordinates":[-95.295444,29.688717]},"properties":{"Campus_Nbr":159,"Campus_Sho":"Golfcrest ES","Street_Add":"7414 Fairway Dr","Grades_Tau":"EE, PK, KG, 1, 2, 3, 4, 5","Division":"SOUTH"}},{"type":"Feature","geometry":{"type":"Point","coordinates":[-95.503947,29.675312]},"properties":{"Campus_Nbr":72,"Campus_Sho":"Fondren MS","Street_Add":"6333 S Braeswood","Grades_Tau":"6, 7, 8","Division":"WEST"}},{"type":"Feature","geometry":{"type":"Point","coordinates":[-95.303328,29.66192]},"properties":{"Campus_Nbr":158,"Campus_Sho":"Garden Villas ES","Street_Add":"7185 Santa Fe","Grades_Tau":"EE, PK, KG, 1, 2, 3, 4, 5","Division":"SOUTH"}},{"type":"Feature","geometry":{"type":"Point","coordinates":[-95.308773,29.673596]},"properties":{"Campus_Nbr":162,"Campus_Sho":"Gregg ES","Street_Add":"6701 Roxbury","Grades_Tau":"EE, PK, KG, 1, 2, 3, 4, 5","Division":"SOUTH"}},{"type":"Feature","geometry":{"type":"Point","coordinates":[-95.454875,29.620595]},"properties":{"Campus_Nbr":262,"Campus_Sho":"Grissom ES","Street_Add":"4900 Simsbrook Dr","Grades_Tau":"EE, PK, KG, 1, 2, 3, 4, 5","Division":"SOUTH"}},{"type":"Feature","geometry":{"type":"Point","coordinates":[-95.348436,29.849225]},"properties":{"Campus_Nbr":283,"Campus_Sho":"Garcia ES","Street_Add":"9550 Aldine Westfield Rd","Grades_Tau":"EE, PK, KG, 1, 2, 3, 4, 5","Division":"NORTH"}},{"type":"Feature","geometry":{"type":"Point","coordinates":[-95.384692,29.756635]},"properties":{"Campus_Nbr":58,"Campus_Sho":"Gregory-Lincoln PK-8","Street_Add":"1101 Taft","Grades_Tau":"EE,PK,KG,1,2,3,4,5,6,7,8","Division":"CENTRAL"}},{"type":"Feature","geometry":{"type":"Point","coordinates":[-95.5279,29.639239]},"properties":{"Campus_Nbr":369,"Campus_Sho":"Gross ES","Street_Add":"12583 S Gessner Dr","Grades_Tau":"EE, PK, KG, 1, 2, 3, 4, 5","Division":"WEST"}},{"type":"Feature","geometry":{"type":"Point","coordinates":[-95.370042,29.736893]},"properties":{"Campus_Nbr":348,"Campus_Sho":"HAIS HS","Street_Add":"1810 Stuart","Grades_Tau":"9, 10, 11, 12","Division":"CENTRAL"}},{"type":"Feature","geometry":{"type":"Point","coordinates":[-95.50279,29.662086]},"properties":{"Campus_Nbr":131,"Campus_Sho":"Halpin ECC","Street_Add":"10901 Sandpiper","Grades_Tau":"EE, PK, KG","Division":"WEST"}},{"type":"Feature","geometry":{"type":"Point","coordinates":[-95.221097,29.769113]},"properties":{"Campus_Nbr":167,"Campus_Sho":"Harris RP ES","Street_Add":"1262 Mae Dr","Grades_Tau":"EE, PK, KG, 1, 2, 3, 4, 5","Division":"CENTRAL"}},{"type":"Feature","geometry":{"type":"Point","coordinates":[-95.397966,29.804677]},"properties":{"Campus_Nbr":49,"Campus_Sho":"Hamilton MS","Street_Add":"139 E 20th St","Grades_Tau":"6, 7, 8","Division":"CENTRAL"}},{"type":"Feature","geometry":{"type":"Point","coordinates":[-95.277638,29.718747]},"properties":{"Campus_Nbr":166,"Campus_Sho":"Harris JR ES","Street_Add":"801 Broadway St","Grades_Tau":"EE, PK, KG, 1, 2, 3, 4, 5","Division":"SOUTH"}},{"type":"Feature","geometry":{"type":"Point","coordinates":[-95.342987,29.694205]},"properties":{"Campus_Nbr":168,"Campus_Sho":"Hartsfield ES","Street_Add":"5001 Perry St","Grades_Tau":"EE, PK, KG, 1, 2, 3, 4, 5","Division":"SOUTH"}},{"type":"Feature","geometry":{"type":"Point","coordinates":[-95.302614,29.673772]},"properties":{"Campus_Nbr":51,"Campus_Sho":"Hartman MS","Street_Add":"7111 Westover","Grades_Tau":"6, 7, 8","Division":"SOUTH"}},{"type":"Feature","geometry":{"type":"Point","coordinates":[-95.395987,29.786181]},"properties":{"Campus_Nbr":169,"Campus_Sho":"Harvard ES","Street_Add":"810 Harvard St","Grades_Tau":"EE, PK, KG, 1, 2, 3, 4, 5","Division":"CENTRAL"}},{"type":"Feature","geometry":{"type":"Point","coordinates":[-95.411741,29.829813]},"properties":{"Campus_Nbr":351,"Campus_Sho":"Harper DAEP","Street_Add":"4425 N Shepherd","Grades_Tau":"9,10,11,12","Division":"CENTRAL"}},{"type":"Feature","geometry":{"type":"Point","coordinates":[-95.376859,29.736511]},"properties":{"Campus_Nbr":97,"Campus_Sho":"HCC Lifeskills","Street_Add":"1301 Alabama St","Grades_Tau":"12","Division":"CENTRAL"}},{"type":"Feature","geometry":{"type":"Point","coordinates":[-95.32074,29.723124]},"properties":{"Campus_Nbr":171,"Campus_Sho":"Henderson JP ES","Street_Add":"1800 Dismuke","Grades_Tau":"EE, PK, KG, 1, 2, 3, 4, 5","Division":"CENTRAL"}},{"type":"Feature","geometry":{"type":"Point","coordinates":[-95.321411,29.76945]},"properties":{"Campus_Nbr":172,"Campus_Sho":"Henderson NQ ES","Street_Add":"701 Solo St","Grades_Tau":"EE, PK, KG, 1, 2, 3, 4, 5","Division":"CENTRAL"}},{"type":"Feature","geometry":{"type":"Point","coordinates":[-95.406946,29.805373]},"properties":{"Campus_Nbr":170,"Campus_Sho":"Helms ES","Street_Add":"503 W 21st St","Grades_Tau":"EE, PK, KG, 1, 2, 3, 4, 5","Division":"CENTRAL"}},{"type":"Feature","geometry":{"type":"Point","coordinates":[-95.392879,29.795342]},"properties":{"Campus_Nbr":12,"Campus_Sho":"Heights HS","Street_Add":"413 E 13th St","Grades_Tau":"9, 10, 11, 12","Division":"CENTRAL"}},{"type":"Feature","geometry":{"type":"Point","coordinates":[-95.487802,29.683288]},"properties":{"Campus_Nbr":173,"Campus_Sho":"Herod ES","Street_Add":"5627 Jason St","Grades_Tau":"EE, PK, KG, 1, 2, 3, 4, 5","Division":"WEST"}},{"type":"Feature","geometry":{"type":"Point","coordinates":[-95.366647,29.822299]},"properties":{"Campus_Nbr":286,"Campus_Sho":"Herrera ES","Street_Add":"525 Bennington St","Grades_Tau":"EE, PK, KG, 1, 2, 3, 4, 5","Division":"NORTH"}},{"type":"Feature","geometry":{"type":"Point","coordinates":[-95.420822,29.849164]},"properties":{"Campus_Nbr":174,"Campus_Sho":"Highland Heights ES","Street_Add":"865 Paul Quinn St","Grades_Tau":"EE, PK, KG, 1, 2, 3, 4, 5","Division":"NORTH"}},{"type":"Feature","geometry":{"type":"Point","coordinates":[-95.40251,29.844327]},"properties":{"Campus_Nbr":456,"Campus_Sho":"High School Ahead Acad MS","Street_Add":"5320 Yale","Grades_Tau":"6, 7, 8","Division":"NORTH"}},{"type":"Feature","geometry":{"type":"Point","coordinates":[-95.36283,29.868862]},"properties":{"Campus_Nbr":52,"Campus_Sho":"Henry MS","Street_Add":"10702 E Hardy","Grades_Tau":"6, 7, 8","Division":"NORTH"}},{"type":"Feature","geometry":{"type":"Point","coordinates":[-95.437245,29.635375]},"properties":{"Campus_Nbr":175,"Campus_Sho":"Hobby ES","Street_Add":"4021 Woodmont Dr","Grades_Tau":"EE, PK, KG, 1, 2, 3, 4, 5","Division":"SOUTH"}},{"type":"Feature","geometry":{"type":"Point","coordinates":[-95.268223,29.838683]},"properties":{"Campus_Nbr":473,"Campus_Sho":"Hilliard ES","Street_Add":"8115 E Houston Rd","Grades_Tau":"EE, PK, KG, 1, 2, 3, 4, 5","Division":"NORTH"}},{"type":"Feature","geometry":{"type":"Point","coordinates":[-95.386057,29.789575]},"properties":{"Campus_Nbr":53,"Campus_Sho":"Hogg MS","Street_Add":"1100 Merrill St","Grades_Tau":"6, 7, 8","Division":"CENTRAL"}},{"type":"Feature","geometry":{"type":"Point","coordinates":[-95.454473,29.693605]},"properties":{"Campus_Nbr":178,"Campus_Sho":"Horn ES","Street_Add":"4530 Holly St","Grades_Tau":"EE, PK, KG, 1, 2, 3, 4, 5","Division":"WEST"}},{"type":"Feature","geometry":{"type":"Point","coordinates":[-95.472387,29.626867]},"properties":{"Campus_Nbr":395,"Campus_Sho":"Hines-Caldwell ES","Street_Add":"5515 W Orem","Grades_Tau":"EE, PK, KG, 1, 2, 3, 4, 5","Division":"SOUTH"}},{"type":"Feature","geometry":{"type":"Point","coordinates":[-95.274113,29.762775]},"properties":{"Campus_Nbr":50,"Campus_Sho":"Holland MS","Street_Add":"1600 Gellhorn","Grades_Tau":"6, 7, 8","Division":"CENTRAL"}},{"type":"Feature","geometry":{"type":"Point","coordinates":[-95.318411,29.795044]},"properties":{"Campus_Nbr":180,"Campus_Sho":"Isaacs ES","Street_Add":"3830 Pickfair St","Grades_Tau":"EE, PK, KG, 1, 2, 3, 4, 5","Division":"CENTRAL"}},{"type":"Feature","geometry":{"type":"Point","coordinates":[-95.370729,29.830449]},"properties":{"Campus_Nbr":181,"Campus_Sho":"Janowski ES","Street_Add":"7500 Bauman Rd","Grades_Tau":"EE, PK, KG, 1, 2, 3, 4, 5","Division":"NORTH"}},{"type":"Feature","geometry":{"type":"Point","coordinates":[-95.347232,29.738344]},"properties":{"Campus_Nbr":34,"Campus_Sho":"HSLJ","Street_Add":"3503 Coyle","Grades_Tau":"9,10,11,12","Division":"CENTRAL"}},{"type":"Feature","geometry":{"type":"Point","coordinates":[-95.361334,29.849027]},"properties":{"Campus_Nbr":310,"Campus_Sho":"Houston MSTC HS","Street_Add":"9400 Irvington","Grades_Tau":"9, 10, 11, 12","Division":"NORTH"}},{"type":"Feature","geometry":{"type":"Point","coordinates":[-95.37103,29.80518]},"properties":{"Campus_Nbr":182,"Campus_Sho":"Jefferson ES","Street_Add":"5000 Sharman St","Grades_Tau":"EE, PK, KG, 1, 2, 3, 4, 5","Division":"CENTRAL"}},{"type":"Feature","geometry":{"type":"Point","coordinates":[-95.417429,29.684381]},"properties":{"Campus_Nbr":320,"Campus_Sho":"JJAEP","Street_Add":"2525 Murworth","Grades_Tau":"4, 5, 6, 7, 8, 9, 10, 11, 12","Division":"WEST"}},{"type":"Feature","geometry":{"type":"Point","coordinates":[-95.318092,29.805212]},"properties":{"Campus_Nbr":185,"Campus_Sho":"Kashmere Gardens ES","Street_Add":"4901 Lockwood Dr","Grades_Tau":"EE, PK, KG, 1, 2, 3, 4, 5","Division":"NORTH"}},{"type":"Feature","geometry":{"type":"Point","coordinates":[-95.393597,29.834463]},"properties":{"Campus_Nbr":188,"Campus_Sho":"Kennedy ES","Street_Add":"400 Victoria Dr","Grades_Tau":"EE, PK, KG, 1, 2, 3, 4, 5","Division":"NORTH"}},{"type":"Feature","geometry":{"type":"Point","coordinates":[-95.31532,29.822692]},"properties":{"Campus_Nbr":7,"Campus_Sho":"Kashmere HS","Street_Add":"6900 Wileyvale St","Grades_Tau":"9, 10, 11, 12","Division":"NORTH"}},{"type":"Feature","geometry":{"type":"Point","coordinates":[-95.362156,29.78072]},"properties":{"Campus_Nbr":389,"Campus_Sho":"Ketelsen ES","Street_Add":"600 Quitman","Grades_Tau":"EE, PK, KG, 1, 2, 3, 4, 5","Division":"CENTRAL"}},{"type":"Feature","geometry":{"type":"Point","coordinates":[-95.333663,29.681919]},"properties":{"Campus_Nbr":187,"Campus_Sho":"Kelso ES","Street_Add":"5800 Southmund St","Grades_Tau":"EE, PK, KG, 1, 2, 3, 4, 5","Division":"SOUTH"}},{"type":"Feature","geometry":{"type":"Point","coordinates":[-95.330315,29.811869]},"properties":{"Campus_Nbr":79,"Campus_Sho":"Key MS","Street_Add":"4000 Kelley St","Grades_Tau":"6, 7, 8","Division":"NORTH"}},{"type":"Feature","geometry":{"type":"Point","coordinates":[-95.360434,29.756998]},"properties":{"Campus_Nbr":25,"Campus_Sho":"Kinder HSPVA","Street_Add":"790 Austin St","Grades_Tau":"9,10,11,12","Division":"CENTRAL"}},{"type":"Feature","geometry":{"type":"Point","coordinates":[-95.340599,29.674679]},"properties":{"Campus_Nbr":6,"Campus_Sho":"Jones HS","Street_Add":"7414 St Lo Rd","Grades_Tau":"9, 10, 11, 12","Division":"SOUTH"}},{"type":"Feature","geometry":{"type":"Point","coordinates":[-95.467708,29.673902]},"properties":{"Campus_Nbr":189,"Campus_Sho":"Kolter ES","Street_Add":"9710 Runnymeade Dr","Grades_Tau":"EE, PK, KG, 1, 2, 3, 4, 5","Division":"WEST"}},{"type":"Feature","geometry":{"type":"Point","coordinates":[-95.498597,29.703905]},"properties":{"Campus_Nbr":340,"Campus_Sho":"Las Americas MS","Street_Add":"6501 Bellaire Blvd","Grades_Tau":"4, 5, 6, 7, 8","Division":"WEST"}},{"type":"Feature","geometry":{"type":"Point","coordinates":[-95.405479,29.741891]},"properties":{"Campus_Nbr":57,"Campus_Sho":"Lanier MS","Street_Add":"2600 Woodhead St","Grades_Tau":"6,7,8","Division":"CENTRAL"}},{"type":"Feature","geometry":{"type":"Point","coordinates":[-95.426169,29.741013]},"properties":{"Campus_Nbr":8,"Campus_Sho":"Lamar HS","Street_Add":"3325 Westheimer Rd","Grades_Tau":"9, 10, 11, 12","Division":"CENTRAL"}},{"type":"Feature","geometry":{"type":"Point","coordinates":[-95.335198,29.740398]},"properties":{"Campus_Nbr":192,"Campus_Sho":"Lantrip ES","Street_Add":"100 Telephone Rd","Grades_Tau":"EE, PK, KG, 1, 2, 3, 4, 5","Division":"CENTRAL"}},{"type":"Feature","geometry":{"type":"Point","coordinates":[-95.33479,29.777169]},"properties":{"Campus_Nbr":458,"Campus_Sho":"Leland YMCPA","Street_Add":"1700 Gregg St","Grades_Tau":"6, 7, 8, 9, 10, 11, 12","Division":"CENTRAL"}},{"type":"Feature","geometry":{"type":"Point","coordinates":[-95.364418,29.62805]},"properties":{"Campus_Nbr":263,"Campus_Sho":"Law ES","Street_Add":"12401 S Coast Dr","Grades_Tau":"EE, PK, KG, 1, 2, 3, 4, 5","Division":"SOUTH"}},{"type":"Feature","geometry":{"type":"Point","coordinates":[-95.319757,29.746393]},"properties":{"Campus_Nbr":357,"Campus_Sho":"Laurenzo ECC","Street_Add":"205 N Delmar","Grades_Tau":"EE, PK, KG","Division":"CENTRAL"}},{"type":"Feature","geometry":{"type":"Point","coordinates":[-95.474637,29.716096]},"properties":{"Campus_Nbr":324,"Campus_Sho":"Liberty HS","Street_Add":"5407 Gulfton St","Grades_Tau":"11,12","Division":"WEST"}},{"type":"Feature","geometry":{"type":"Point","coordinates":[-95.453011,29.622494]},"properties":{"Campus_Nbr":75,"Campus_Sho":"Lawson MS","Street_Add":"14000 Stancliff St","Grades_Tau":"6, 7, 8","Division":"SOUTH"}},{"type":"Feature","geometry":{"type":"Point","coordinates":[-95.282426,29.665805]},"properties":{"Campus_Nbr":194,"Campus_Sho":"Lewis ES","Street_Add":"6745 Tipperary","Grades_Tau":"1, 2, 3, 4, 5","Division":"SOUTH"}},{"type":"Feature","geometry":{"type":"Point","coordinates":[-95.365791,29.717536]},"properties":{"Campus_Nbr":195,"Campus_Sho":"Lockhart ES","Street_Add":"3200 Rosedale St","Grades_Tau":"EE, PK, KG, 1, 2, 3, 4, 5","Division":"SOUTH"}},{"type":"Feature","geometry":{"type":"Point","coordinates":[-95.498716,29.704842]},"properties":{"Campus_Nbr":59,"Campus_Sho":"Long Acad","Street_Add":"6501 Bellaire Blvd","Grades_Tau":"6, 7, 8, 9, 10, 11, 12","Division":"WEST"}},{"type":"Feature","geometry":{"type":"Point","coordinates":[-95.357696,29.795185]},"properties":{"Campus_Nbr":197,"Campus_Sho":"Looscan ES","Street_Add":"3800 Robertson St","Grades_Tau":"EE, PK, KG, 1, 2, 3, 4, 5","Division":"CENTRAL"}},{"type":"Feature","geometry":{"type":"Point","coordinates":[-95.432204,29.687099]},"properties":{"Campus_Nbr":196,"Campus_Sho":"Longfellow ES","Street_Add":"3617 Norris","Grades_Tau":"EE, PK, KG, 1, 2, 3, 4, 5","Division":"WEST"}},{"type":"Feature","geometry":{"type":"Point","coordinates":[-95.469317,29.682712]},"properties":{"Campus_Nbr":199,"Campus_Sho":"Lovett ES","Street_Add":"8814 S Rice Ave","Grades_Tau":"EE,PK,KG,1,2,3,4,5","Division":"WEST"}},{"type":"Feature","geometry":{"type":"Point","coordinates":[-95.409121,29.793159]},"properties":{"Campus_Nbr":198,"Campus_Sho":"Love ES","Street_Add":"1120 W 13th St","Grades_Tau":"EE, PK, KG, 1, 2, 3, 4, 5","Division":"CENTRAL"}},{"type":"Feature","geometry":{"type":"Point","coordinates":[-95.367011,29.855907]},"properties":{"Campus_Nbr":128,"Campus_Sho":"Lyons ES","Street_Add":"800 Roxella Rd","Grades_Tau":"EE, PK, KG, 1, 2, 3, 4, 5","Division":"NORTH"}},{"type":"Feature","geometry":{"type":"Point","coordinates":[-95.32743,29.659655]},"properties":{"Campus_Nbr":203,"Campus_Sho":"Mading ES","Street_Add":"8511 Crestmont St","Grades_Tau":"EE, PK, KG, 1, 2, 3, 4, 5","Division":"SOUTH"}},{"type":"Feature","geometry":{"type":"Point","coordinates":[-95.436497,29.628981]},"properties":{"Campus_Nbr":10,"Campus_Sho":"Madison HS","Street_Add":"13719 Whiteheather","Grades_Tau":"9, 10, 11, 12","Division":"SOUTH"}},{"type":"Feature","geometry":{"type":"Point","coordinates":[-95.47273,29.737229]},"properties":{"Campus_Nbr":460,"Campus_Sho":"Mandarin Immersion Magnet","Street_Add":"5445 W Alabama","Grades_Tau":"PK, KG, 1, 2, 3, 4, 5, 6, 7, 8","Division":"WEST"}},{"type":"Feature","geometry":{"type":"Point","coordinates":[-95.297634,29.898178]},"properties":{"Campus_Nbr":480,"Campus_Sho":"Marshall ES","Street_Add":"6200 Winfield Rd","Grades_Tau":"EE, KG, 1, 2, 3, 4, 5","Division":"NORTH"}},{"type":"Feature","geometry":{"type":"Point","coordinates":[-95.380778,29.727951]},"properties":{"Campus_Nbr":201,"Campus_Sho":"MacGregor ES","Street_Add":"4801 Labranch St","Grades_Tau":"EE, PK, KG, 1, 2, 3, 4, 5","Division":"CENTRAL"}},{"type":"Feature","geometry":{"type":"Point","coordinates":[-95.356839,29.781952]},"properties":{"Campus_Nbr":61,"Campus_Sho":"Marshall MS","Street_Add":"1115 Noble St","Grades_Tau":"6, 7, 8","Division":"CENTRAL"}},{"type":"Feature","geometry":{"type":"Point","coordinates":[-95.504434,29.684285]},"properties":{"Campus_Nbr":227,"Campus_Sho":"McNamara ES","Street_Add":"8714 Mcavoy Dr","Grades_Tau":"EE, PK, KG, 1, 2, 3, 4, 5","Division":"WEST"}},{"type":"Feature","geometry":{"type":"Point","coordinates":[-95.296887,29.773303]},"properties":{"Campus_Nbr":298,"Campus_Sho":"Martinez R ES","Street_Add":"7211 Market St","Grades_Tau":"EE, PK, KG, 1, 2, 3, 4, 5","Division":"CENTRAL"}},{"type":"Feature","geometry":{"type":"Point","coordinates":[-95.300623,29.820506]},"properties":{"Campus_Nbr":179,"Campus_Sho":"McGowen ES","Street_Add":"6820 Homestead Rd","Grades_Tau":"EE, PK, KG, 1, 2, 3, 4, 5","Division":"NORTH"}},{"type":"Feature","geometry":{"type":"Point","coordinates":[-95.311754,29.772029]},"properties":{"Campus_Nbr":62,"Campus_Sho":"McReynolds MS","Street_Add":"5910 Market St","Grades_Tau":"6, 7, 8","Division":"CENTRAL"}},{"type":"Feature","geometry":{"type":"Point","coordinates":[-95.425522,29.769563]},"properties":{"Campus_Nbr":204,"Campus_Sho":"Memorial ES","Street_Add":"6401 Arnot St","Grades_Tau":"EE, PK, KG, 1, 2, 3, 4, 5","Division":"CENTRAL"}},{"type":"Feature","geometry":{"type":"Point","coordinates":[-95.474361,29.669231]},"properties":{"Campus_Nbr":55,"Campus_Sho":"Meyerland MS","Street_Add":"10410 Manhattan Dr","Grades_Tau":"6, 7, 8","Division":"WEST"}},{"type":"Feature","geometry":{"type":"Point","coordinates":[-95.474637,29.716096]},"properties":{"Campus_Nbr":484,"Campus_Sho":"Middle College HS - Gulfton","Street_Add":"5407 Gulfton St 219","Grades_Tau":"9, 10, 11, 12","Division":"WEST"}},{"type":"Feature","geometry":{"type":"Point","coordinates":[-95.515455,29.661254]},"properties":{"Campus_Nbr":299,"Campus_Sho":"Milne ES","Street_Add":"7800 Portal Dr","Grades_Tau":"EE, PK, KG, 1, 2, 3, 4, 5","Division":"WEST"}},{"type":"Feature","geometry":{"type":"Point","coordinates":[-95.332242,29.752226]},"properties":{"Campus_Nbr":485,"Campus_Sho":"Middle College HS - Fraga","Street_Add":"301 N Drennan","Grades_Tau":"9, 10, 11, 12","Division":"CENTRAL"}},{"type":"Feature","geometry":{"type":"Point","coordinates":[-95.359499,29.790651]},"properties":{"Campus_Nbr":289,"Campus_Sho":"Martinez C ES","Street_Add":"901 Hays St","Grades_Tau":"EE, PK, KG, 1, 2, 3, 4, 5","Division":"CENTRAL"}},{"type":"Feature","geometry":{"type":"Point","coordinates":[-95.27715,29.710789]},"properties":{"Campus_Nbr":11,"Campus_Sho":"Milby HS","Street_Add":"1601 Broadway","Grades_Tau":"9, 10, 11, 12","Division":"SOUTH"}},{"type":"Feature","geometry":{"type":"Point","coordinates":[-95.276412,29.607542]},"properties":{"Campus_Nbr":264,"Campus_Sho":"Mitchell ES","Street_Add":"8050 Springtime Ln","Grades_Tau":"EE, PK, KG, 1, 2, 3, 4, 5","Division":"SOUTH"}},{"type":"Feature","geometry":{"type":"Point","coordinates":[-95.491314,29.701376]},"properties":{"Campus_Nbr":354,"Campus_Sho":"Mistral ECC","Street_Add":"6203 Jessamine","Grades_Tau":"EE, PK, KG","Division":"WEST"}},{"type":"Feature","geometry":{"type":"Point","coordinates":[-95.43687,29.620279]},"properties":{"Campus_Nbr":207,"Campus_Sho":"Montgomery ES","Street_Add":"4000 Simsbrook Dr","Grades_Tau":"EE, PK, KG, 1, 2, 3, 4, 5","Division":"SOUTH"}},{"type":"Feature","geometry":{"type":"Point","coordinates":[-95.436219,29.614093]},"properties":{"Campus_Nbr":355,"Campus_Sho":"MLK ECC","Street_Add":"3930 W Fuqua","Grades_Tau":"EE, PK, KG","Division":"SOUTH"}},{"type":"Feature","geometry":{"type":"Point","coordinates":[-95.529077,29.697536]},"properties":{"Campus_Nbr":209,"Campus_Sho":"Neff ECC","Street_Add":"8200 Carvel Ln","Grades_Tau":"EE, PK, KG, 1","Division":"WEST"}},{"type":"Feature","geometry":{"type":"Point","coordinates":[-95.325404,29.735072]},"properties":{"Campus_Nbr":54,"Campus_Sho":"Navarro MS","Street_Add":"5100 Polk St","Grades_Tau":"6, 7, 8","Division":"CENTRAL"}},{"type":"Feature","geometry":{"type":"Point","coordinates":[-95.532238,29.700156]},"properties":{"Campus_Nbr":394,"Campus_Sho":"Neff ES","Street_Add":"8301 Neff St","Grades_Tau":"2, 3, 4, 5","Division":"WEST"}},{"type":"Feature","geometry":{"type":"Point","coordinates":[-95.259796,29.86728]},"properties":{"Campus_Nbr":477,"Campus_Sho":"North Forest HS","Street_Add":"10726 Mesa Dr","Grades_Tau":"9, 10, 11, 12","Division":"NORTH"}},{"type":"Feature","geometry":{"type":"Point","coordinates":[-95.386874,29.851066]},"properties":{"Campus_Nbr":210,"Campus_Sho":"Northline ES","Street_Add":"821 Witcher Ln","Grades_Tau":"EE, PK, KG, 1, 2, 3, 4, 5","Division":"NORTH"}},{"type":"Feature","geometry":{"type":"Point","coordinates":[-95.390409,29.874799]},"properties":{"Campus_Nbr":359,"Campus_Sho":"Moreno ES","Street_Add":"620 E Canino","Grades_Tau":"EE, PK, KG, 1, 2, 3, 4, 5","Division":"NORTH"}},{"type":"Feature","geometry":{"type":"Point","coordinates":[-95.377752,29.833069]},"properties":{"Campus_Nbr":308,"Campus_Sho":"North Houston EC HS","Street_Add":"8001 Fulton St Bldg C","Grades_Tau":"9, 10, 11, 12","Division":"NORTH"}},{"type":"Feature","geometry":{"type":"Point","coordinates":[-95.358229,29.783637]},"properties":{"Campus_Nbr":3,"Campus_Sho":"Northside HS","Street_Add":"1101 Quitman","Grades_Tau":"9, 10, 11, 12","Division":"CENTRAL"}},{"type":"Feature","geometry":{"type":"Point","coordinates":[-95.25253,29.79317]},"properties":{"Campus_Nbr":212,"Campus_Sho":"Oates ES","Street_Add":"10044 Wallisville Rd","Grades_Tau":"EE, PK, KG, 1, 2, 3, 4, 5","Division":"CENTRAL"}},{"type":"Feature","geometry":{"type":"Point","coordinates":[-95.28746,29.663353]},"properties":{"Campus_Nbr":338,"Campus_Sho":"Ortiz MS","Street_Add":"6767 Telephone Rd","Grades_Tau":"6, 7, 8","Division":"SOUTH"}},{"type":"Feature","geometry":{"type":"Point","coordinates":[-95.416347,29.87604]},"properties":{"Campus_Nbr":213,"Campus_Sho":"Osborne ES","Street_Add":"800 Ringold St","Grades_Tau":"EE, PK, KG, 1, 2, 3, 4, 5","Division":"NORTH"}},{"type":"Feature","geometry":{"type":"Point","coordinates":[-95.483665,29.665682]},"properties":{"Campus_Nbr":215,"Campus_Sho":"Parker ES","Street_Add":"10626 Atwell Dr","Grades_Tau":"EE, PK, KG, 1, 2, 3, 4, 5","Division":"WEST"}},{"type":"Feature","geometry":{"type":"Point","coordinates":[-95.338615,29.827081]},"properties":{"Campus_Nbr":113,"Campus_Sho":"Paige ES","Street_Add":"7501 Curry Rd","Grades_Tau":"EE, PK, KG, 1, 2, 3, 4, 5","Division":"NORTH"}},{"type":"Feature","geometry":{"type":"Point","coordinates":[-95.273561,29.689484]},"properties":{"Campus_Nbr":214,"Campus_Sho":"Park Place ES","Street_Add":"8235 Park Pl Blvd","Grades_Tau":"EE, PK, KG, 1, 2, 3, 4, 5","Division":"SOUTH"}},{"type":"Feature","geometry":{"type":"Point","coordinates":[-95.436408,29.827885]},"properties":{"Campus_Nbr":211,"Campus_Sho":"Oak Forest ES","Street_Add":"1401 W 43rd St","Grades_Tau":"EE, KG, 1, 2, 3, 4, 5","Division":"NORTH"}},{"type":"Feature","geometry":{"type":"Point","coordinates":[-95.242398,29.682506]},"properties":{"Campus_Nbr":216,"Campus_Sho":"Patterson ES","Street_Add":"5302 Allendale Rd","Grades_Tau":"EE, PK, KG, 1, 2, 3, 4, 5","Division":"SOUTH"}},{"type":"Feature","geometry":{"type":"Point","coordinates":[-95.425199,29.617694]},"properties":{"Campus_Nbr":265,"Campus_Sho":"Petersen ES","Street_Add":"14404 Waterloo Dr","Grades_Tau":"EE, PK, KG, 1, 2, 3, 4, 5","Division":"SOUTH"}},{"type":"Feature","geometry":{"type":"Point","coordinates":[-95.333997,29.706332]},"properties":{"Campus_Nbr":217,"Campus_Sho":"Peck ES","Street_Add":"5001 Martin Luther King Jr Blvd","Grades_Tau":"EE, PK, KG, 1, 2, 3, 4, 5","Division":"SOUTH"}},{"type":"Feature","geometry":{"type":"Point","coordinates":[-95.438389,29.702388]},"properties":{"Campus_Nbr":64,"Campus_Sho":"Pershing MS","Street_Add":"3838 Blue Bonnet","Grades_Tau":"6, 7, 8","Division":"CENTRAL"}},{"type":"Feature","geometry":{"type":"Point","coordinates":[-95.457111,29.719343]},"properties":{"Campus_Nbr":337,"Campus_Sho":"Pin Oak MS","Street_Add":"4601 Glenmont","Grades_Tau":"6, 7, 8","Division":"WEST"}},{"type":"Feature","geometry":{"type":"Point","coordinates":[-95.521623,29.724697]},"properties":{"Campus_Nbr":219,"Campus_Sho":"Piney Point ES","Street_Add":"8921 Pagewood Ln","Grades_Tau":"EE, PK, KG, 1, 2, 3, 4, 5","Division":"WEST"}},{"type":"Feature","geometry":{"type":"Point","coordinates":[-95.271926,29.764121]},"properties":{"Campus_Nbr":220,"Campus_Sho":"Pleasantville ES","Street_Add":"1431 Gellhorn Dr","Grades_Tau":"EE, PK, KG, 1, 2, 3, 4, 5","Division":"CENTRAL"}},{"type":"Feature","geometry":{"type":"Point","coordinates":[-95.493714,29.729018]},"properties":{"Campus_Nbr":218,"Campus_Sho":"Pilgrim  Acad","Street_Add":"6302 Skyline","Grades_Tau":"EE, PK, KG, 1, 2, 3, 4, 5, 6, 7, 8","Division":"WEST"}},{"type":"Feature","geometry":{"type":"Point","coordinates":[-95.407829,29.72718]},"properties":{"Campus_Nbr":221,"Campus_Sho":"Poe ES","Street_Add":"5100 Hazard St","Grades_Tau":"EE, PK, KG, 1, 2, 3, 4, 5","Division":"CENTRAL"}},{"type":"Feature","geometry":{"type":"Point","coordinates":[-95.283165,29.760114]},"properties":{"Campus_Nbr":222,"Campus_Sho":"Port Houston ES","Street_Add":"1800 Mccarty St","Grades_Tau":"EE, PK, KG, 1, 2, 3, 4, 5","Division":"CENTRAL"}},{"type":"Feature","geometry":{"type":"Point","coordinates":[-95.30706,29.768024]},"properties":{"Campus_Nbr":223,"Campus_Sho":"Pugh ES","Street_Add":"1147 Kress St","Grades_Tau":"EE, PK, KG, 1, 2, 3, 4, 5","Division":"CENTRAL"}},{"type":"Feature","geometry":{"type":"Point","coordinates":[-95.454552,29.666844]},"properties":{"Campus_Nbr":224,"Campus_Sho":"Red ES","Street_Add":"4520 Tonawanda Dr","Grades_Tau":"EE, PK, KG, 1, 2, 3, 4, 5","Division":"WEST"}},{"type":"Feature","geometry":{"type":"Point","coordinates":[-95.454222,29.607167]},"properties":{"Campus_Nbr":382,"Campus_Sho":"Reagan Ed Ctr K-8","Street_Add":"4842 Anderson Rd","Grades_Tau":"EE,PK,KG,1,2,3,4,5,6,7,8","Division":"SOUTH"}},{"type":"Feature","geometry":{"type":"Point","coordinates":[-95.420589,29.697809]},"properties":{"Campus_Nbr":80,"Campus_Sho":"Rice School PK-8","Street_Add":"7550 Seuss Dr","Grades_Tau":"KG, 1, 2, 3, 4, 5, 6, 7, 8","Division":"CENTRAL"}},{"type":"Feature","geometry":{"type":"Point","coordinates":[-95.438375,29.615442]},"properties":{"Campus_Nbr":380,"Campus_Sho":"R D S P D","Street_Add":"4040 W Fuqua","Grades_Tau":"EE, 4","Division":"SOUTH"}},{"type":"Feature","geometry":{"type":"Point","coordinates":[-95.420006,29.747152]},"properties":{"Campus_Nbr":228,"Campus_Sho":"River Oaks ES","Street_Add":"2008 Kirby Dr","Grades_Tau":"EE, KG, 1, 2, 3, 4, 5","Division":"CENTRAL"}},{"type":"Feature","geometry":{"type":"Point","coordinates":[-95.375297,29.651804]},"properties":{"Campus_Nbr":225,"Campus_Sho":"Reynolds ES","Street_Add":"9601 Rosehaven Dr","Grades_Tau":"EE, PK, KG, 1, 2, 3, 4, 5","Division":"SOUTH"}},{"type":"Feature","geometry":{"type":"Point","coordinates":[-95.560882,29.748673]},"properties":{"Campus_Nbr":60,"Campus_Sho":"Revere MS","Street_Add":"10502 Briar Forest Dr","Grades_Tau":"6, 7, 8","Division":"WEST"}},{"type":"Feature","geometry":{"type":"Point","coordinates":[-95.411878,29.712075]},"properties":{"Campus_Nbr":229,"Campus_Sho":"Roberts ES","Street_Add":"6000 Greenbriar St","Grades_Tau":"EE, PK, KG, 1, 2, 3, 4, 5","Division":"CENTRAL"}},{"type":"Feature","geometry":{"type":"Point","coordinates":[-95.480728,29.751014]},"properties":{"Campus_Nbr":39,"Campus_Sho":"Rogers T H","Street_Add":"5840 San Felipe St","Grades_Tau":"EE, KG, 1, 2, 3, 4, 5, 6, 7, 8, 9, 10, 11, 12","Division":"WEST"}},{"type":"Feature","geometry":{"type":"Point","coordinates":[-95.212722,29.790099]},"properties":{"Campus_Nbr":186,"Campus_Sho":"Robinson ES","Street_Add":"12425 Woodforest Blvd","Grades_Tau":"EE, PK, KG, 1, 2, 3, 4, 5","Division":"CENTRAL"}},{"type":"Feature","geometry":{"type":"Point","coordinates":[-95.374453,29.818534]},"properties":{"Campus_Nbr":231,"Campus_Sho":"Roosevelt ES","Street_Add":"6700 Fulton St","Grades_Tau":"EE, PK, KG, 1, 2, 3, 4, 5","Division":"CENTRAL"}},{"type":"Feature","geometry":{"type":"Point","coordinates":[-95.34138,29.801015]},"properties":{"Campus_Nbr":232,"Campus_Sho":"Ross ES","Street_Add":"2819 Bay St","Grades_Tau":"EE, PK, KG, 1, 2, 3, 4, 5","Division":"CENTRAL"}},{"type":"Feature","geometry":{"type":"Point","coordinates":[-95.241943,29.694062]},"properties":{"Campus_Nbr":233,"Campus_Sho":"Rucker ES","Street_Add":"5201 Vinett St","Grades_Tau":"EE, PK, KG, 1, 2, 3, 4, 5","Division":"SOUTH"}},{"type":"Feature","geometry":{"type":"Point","coordinates":[-95.284886,29.70241]},"properties":{"Campus_Nbr":281,"Campus_Sho":"Sanchez ES","Street_Add":"2700 Berkley St","Grades_Tau":"EE, PK, KG, 1, 2, 3, 4, 5","Division":"SOUTH"}},{"type":"Feature","geometry":{"type":"Point","coordinates":[-95.477535,29.718487]},"properties":{"Campus_Nbr":372,"Campus_Sho":"Rodriguez ES","Street_Add":"5858 Chimney Rock","Grades_Tau":"EE, PK, KG, 1, 2, 3, 4, 5","Division":"WEST"}},{"type":"Feature","geometry":{"type":"Point","coordinates":[-95.472591,29.736061]},"properties":{"Campus_Nbr":353,"Campus_Sho":"School at St. George ES","Street_Add":"5430 Hidalgo St","Grades_Tau":"EE, PK, KG, 1, 2, 3, 4, 5","Division":"WEST"}},{"type":"Feature","geometry":{"type":"Point","coordinates":[-95.33649,29.871654]},"properties":{"Campus_Nbr":237,"Campus_Sho":"Scarborough ES","Street_Add":"3030 Trenton Rd","Grades_Tau":"EE, PK, KG, 1, 2, 3, 4, 5","Division":"NORTH"}},{"type":"Feature","geometry":{"type":"Point","coordinates":[-95.341613,29.774871]},"properties":{"Campus_Nbr":402,"Campus_Sho":"Secondary DAEP","Street_Add":"1510 Jensen Dr","Grades_Tau":"6,7,8","Division":"CENTRAL"}},{"type":"Feature","geometry":{"type":"Point","coordinates":[-95.298483,29.781123]},"properties":{"Campus_Nbr":269,"Campus_Sho":"Scroggins ES","Street_Add":"400 Boyles St","Grades_Tau":"EE, PK, KG, 1, 2, 3, 4, 5","Division":"CENTRAL"}},{"type":"Feature","geometry":{"type":"Point","coordinates":[-95.470995,29.829203]},"properties":{"Campus_Nbr":24,"Campus_Sho":"Scarborough HS","Street_Add":"4141 Costa Rica","Grades_Tau":"9, 10, 11, 12","Division":"NORTH"}},{"type":"Feature","geometry":{"type":"Point","coordinates":[-95.598922,29.737639]},"properties":{"Campus_Nbr":276,"Campus_Sho":"Shadowbriar ES","Street_Add":"2650 Shadowbriar Dr","Grades_Tau":"PK, KG, 1, 2, 3, 4, 5","Division":"WEST"}},{"type":"Feature","geometry":{"type":"Point","coordinates":[-95.30566,29.678572]},"properties":{"Campus_Nbr":373,"Campus_Sho":"Seguin ES","Street_Add":"5905 Waltrip","Grades_Tau":"EE, PK, KG, 1, 2, 3, 4, 5","Division":"SOUTH"}},{"type":"Feature","geometry":{"type":"Point","coordinates":[-95.311463,29.849558]},"properties":{"Campus_Nbr":479,"Campus_Sho":"Shadydale ES","Street_Add":"5905 Tidwell Rd","Grades_Tau":"EE, KG, 1, 2, 3, 4, 5","Division":"NORTH"}},{"type":"Feature","geometry":{"type":"Point","coordinates":[-95.516534,29.684112]},"properties":{"Campus_Nbr":23,"Campus_Sho":"Sharpstown HS","Street_Add":"7504 Bissonnet St","Grades_Tau":"9, 10, 11, 12","Division":"WEST"}},{"type":"Feature","geometry":{"type":"Point","coordinates":[-95.352576,29.779181]},"properties":{"Campus_Nbr":240,"Campus_Sho":"Sherman ES","Street_Add":"1909 Mckee St","Grades_Tau":"EE, PK, KG, 1, 2, 3, 4, 5","Division":"CENTRAL"}},{"type":"Feature","geometry":{"type":"Point","coordinates":[-95.531749,29.698642]},"properties":{"Campus_Nbr":81,"Campus_Sho":"Sharpstown Intl","Street_Add":"8330 Triola","Grades_Tau":"6, 7, 8, 9, 10, 11, 12","Division":"WEST"}},{"type":"Feature","geometry":{"type":"Point","coordinates":[-95.46169,29.839272]},"properties":{"Campus_Nbr":242,"Campus_Sho":"Smith ES","Street_Add":"4802 Chrystell Ln","Grades_Tau":"EE, PK, KG, 1, 2, 3, 4, 5","Division":"NORTH"}},{"type":"Feature","geometry":{"type":"Point","coordinates":[-95.428804,29.794026]},"properties":{"Campus_Nbr":241,"Campus_Sho":"Sinclair ES","Street_Add":"6410 Grovewood Ln","Grades_Tau":"EE,PK,KG,1,2,3,4,5","Division":"NORTH"}},{"type":"Feature","geometry":{"type":"Point","coordinates":[-95.44117,29.677795]},"properties":{"Campus_Nbr":239,"Campus_Sho":"Shearn ES","Street_Add":"9802 Stella Link Rd","Grades_Tau":"EE, PK, KG, 1, 2, 3, 4, 5","Division":"WEST"}},{"type":"Feature","geometry":{"type":"Point","coordinates":[-95.389534,29.642526]},"properties":{"Campus_Nbr":486,"Campus_Sho":"South EC HS","Street_Add":"1930 Airport Blvd","Grades_Tau":"9, 10, 11, 12","Division":"SOUTH"}},{"type":"Feature","geometry":{"type":"Point","coordinates":[-95.289206,29.710071]},"properties":{"Campus_Nbr":244,"Campus_Sho":"Southmayd ES","Street_Add":"1800 Coral St","Grades_Tau":"EE, PK, KG, 1, 2, 3, 4, 5","Division":"SOUTH"}},{"type":"Feature","geometry":{"type":"Point","coordinates":[-95.44615,29.827227]},"properties":{"Campus_Nbr":245,"Campus_Sho":"Stevens ES","Street_Add":"1910 Lamonte Ln","Grades_Tau":"EE, PK, KG, 1, 2, 3, 4, 5","Division":"NORTH"}},{"type":"Feature","geometry":{"type":"Point","coordinates":[-95.245033,29.670998]},"properties":{"Campus_Nbr":98,"Campus_Sho":"Stevenson MS","Street_Add":"9595 Winkler","Grades_Tau":"6, 7, 8","Division":"SOUTH"}},{"type":"Feature","geometry":{"type":"Point","coordinates":[-95.512972,29.687519]},"properties":{"Campus_Nbr":163,"Campus_Sho":"Sugar Grove MS","Street_Add":"8405 Bonhomme","Grades_Tau":"6, 7, 8","Division":"WEST"}},{"type":"Feature","geometry":{"type":"Point","coordinates":[-95.455092,29.803556]},"properties":{"Campus_Nbr":69,"Campus_Sho":"SOAR Center","Street_Add":"4400 W 18th St","Grades_Tau":"EE, PK, KG, 1, 2, 3, 4, 5, 6, 7, 8, 9, 10, 11, 12","Division":"NORTH"}},{"type":"Feature","geometry":{"type":"Point","coordinates":[-95.321874,29.63516]},"properties":{"Campus_Nbr":14,"Campus_Sho":"Sterling HS","Street_Add":"11625 Martindale Rd","Grades_Tau":"9, 10, 11, 12","Division":"SOUTH"}},{"type":"Feature","geometry":{"type":"Point","coordinates":[-95.501971,29.697631]},"properties":{"Campus_Nbr":248,"Campus_Sho":"Sutton ES","Street_Add":"7402 Albacore Dr","Grades_Tau":"EE, PK, KG, 1, 2, 3, 4, 5","Division":"WEST"}},{"type":"Feature","geometry":{"type":"Point","coordinates":[-95.562143,29.728491]},"properties":{"Campus_Nbr":100,"Campus_Sho":"TCAH","Street_Add":"10550 Richmond Ave #140","Grades_Tau":"3, 4, 5, 6, 7, 8, 9, 10, 11, 12","Division":"WEST"}},{"type":"Feature","geometry":{"type":"Point","coordinates":[-95.332447,29.638627]},"properties":{"Campus_Nbr":77,"Campus_Sho":"Thomas MS","Street_Add":"5655 Selinsky Rd","Grades_Tau":"6, 7, 8","Division":"SOUTH"}},{"type":"Feature","geometry":{"type":"Point","coordinates":[-95.309814,29.740896]},"properties":{"Campus_Nbr":279,"Campus_Sho":"Tijerina ES","Street_Add":"6501 Sherman St","Grades_Tau":"EE, PK, KG, 1, 2, 3, 4, 5","Division":"CENTRAL"}},{"type":"Feature","geometry":{"type":"Point","coordinates":[-95.468652,29.749655]},"properties":{"Campus_Nbr":68,"Campus_Sho":"Tanglewood MS","Street_Add":"5215 San Felipe","Grades_Tau":"6, 7, 8","Division":"WEST"}},{"type":"Feature","geometry":{"type":"Point","coordinates":[-95.437982,29.698688]},"properties":{"Campus_Nbr":251,"Campus_Sho":"Twain ES","Street_Add":"7500 Braes Blvd","Grades_Tau":"KG,1,2,3,4,5","Division":"CENTRAL"}},{"type":"Feature","geometry":{"type":"Point","coordinates":[-95.374639,29.788934]},"properties":{"Campus_Nbr":249,"Campus_Sho":"Travis ES","Street_Add":"3311 Beauchamp St","Grades_Tau":"KG,1,2,3,4,5","Division":"CENTRAL"}},{"type":"Feature","geometry":{"type":"Point","coordinates":[-95.362907,29.705216]},"properties":{"Campus_Nbr":243,"Campus_Sho":"Thompson ES","Street_Add":"6121 Tierwester","Grades_Tau":"EE, PK, KG, 1, 2, 3, 4, 5","Division":"SOUTH"}},{"type":"Feature","geometry":{"type":"Point","coordinates":[-95.469486,29.822806]},"properties":{"Campus_Nbr":252,"Campus_Sho":"Wainwright ES","Street_Add":"5330 Milwee St","Grades_Tau":"EE, PK, KG, 1, 2, 3, 4, 5","Division":"NORTH"}},{"type":"Feature","geometry":{"type":"Point","coordinates":[-95.526234,29.663572]},"properties":{"Campus_Nbr":285,"Campus_Sho":"Valley West ES","Street_Add":"10707 S Gessner Dr","Grades_Tau":"EE,PK,KG,1,2,3,4,5","Division":"WEST"}},{"type":"Feature","geometry":{"type":"Point","coordinates":[-95.499619,29.658834]},"properties":{"Campus_Nbr":374,"Campus_Sho":"Tinsley ES","Street_Add":"11035 Bob White","Grades_Tau":"EE, 1, 2, 3, 4, 5","Division":"WEST"}},{"type":"Feature","geometry":{"type":"Point","coordinates":[-95.398078,29.82446]},"properties":{"Campus_Nbr":16,"Campus_Sho":"Washington HS","Street_Add":"4204 Yale St","Grades_Tau":"9, 10, 11, 12","Division":"NORTH"}},{"type":"Feature","geometry":{"type":"Point","coordinates":[-95.43289,29.818449]},"properties":{"Campus_Nbr":15,"Campus_Sho":"Waltrip HS","Street_Add":"1900 W 34th St","Grades_Tau":"9,10,11,12","Division":"NORTH"}},{"type":"Feature","geometry":{"type":"Point","coordinates":[-95.41911,29.861386]},"properties":{"Campus_Nbr":254,"Campus_Sho":"Wesley ES","Street_Add":"800 Dillard St","Grades_Tau":"EE, PK, KG, 1, 2, 3, 4, 5","Division":"NORTH"}},{"type":"Feature","geometry":{"type":"Point","coordinates":[-95.435379,29.715711]},"properties":{"Campus_Nbr":255,"Campus_Sho":"West University ES","Street_Add":"3756 University Blvd","Grades_Tau":"EE,PK,KG,1,2,3,4,5","Division":"CENTRAL"}},{"type":"Feature","geometry":{"type":"Point","coordinates":[-95.529268,29.653187]},"properties":{"Campus_Nbr":56,"Campus_Sho":"Welch MS","Street_Add":"11544 S Gessner","Grades_Tau":"6, 7, 8","Division":"WEST"}},{"type":"Feature","geometry":{"type":"Point","coordinates":[-95.629705,29.760721]},"properties":{"Campus_Nbr":99,"Campus_Sho":"West Briar MS","Street_Add":"13733 Brimhurst","Grades_Tau":"6, 7, 8","Division":"WEST"}},{"type":"Feature","geometry":{"type":"Point","coordinates":[-95.563841,29.747682]},"properties":{"Campus_Nbr":253,"Campus_Sho":"Walnut Bend ES","Street_Add":"10620 Briar Forest","Grades_Tau":"EE, PK, KG, 1, 2, 3, 4, 5","Division":"WEST"}},{"type":"Feature","geometry":{"type":"Point","coordinates":[-95.390696,29.754378]},"properties":{"Campus_Nbr":256,"Campus_Sho":"Wharton K-8","Street_Add":"900 W Gray St","Grades_Tau":"EE,PK,KG,1,2,3,4,5,6,7,8","Division":"CENTRAL"}},{"type":"Feature","geometry":{"type":"Point","coordinates":[-95.481358,29.649104]},"properties":{"Campus_Nbr":17,"Campus_Sho":"Westbury HS","Street_Add":"11911 Chimney Rock","Grades_Tau":"9, 10, 11, 12","Division":"WEST"}},{"type":"Feature","geometry":{"type":"Point","coordinates":[-95.542771,29.696129]},"properties":{"Campus_Nbr":267,"Campus_Sho":"White E ES","Street_Add":"9001 Triola Ln","Grades_Tau":"EE, PK, KG, 1, 2, 3, 4, 5","Division":"WEST"}},{"type":"Feature","geometry":{"type":"Point","coordinates":[-95.320073,29.771801]},"properties":{"Campus_Nbr":18,"Campus_Sho":"Wheatley HS","Street_Add":"4801 Providence","Grades_Tau":"9, 10, 11, 12","Division":"CENTRAL"}},{"type":"Feature","geometry":{"type":"Point","coordinates":[-95.375289,29.682062]},"properties":{"Campus_Nbr":257,"Campus_Sho":"Whidby ES","Street_Add":"7625 Springhill St","Grades_Tau":"EE, PK, KG, 1, 2, 3, 4, 5","Division":"SOUTH"}},{"type":"Feature","geometry":{"type":"Point","coordinates":[-95.424316,29.854123]},"properties":{"Campus_Nbr":82,"Campus_Sho":"Williams MS","Street_Add":"6100 Knox St","Grades_Tau":"6, 7, 8","Division":"NORTH"}},{"type":"Feature","geometry":{"type":"Point","coordinates":[-95.509573,29.742268]},"properties":{"Campus_Nbr":483,"Campus_Sho":"White M ES","Street_Add":"2515 Old Farm Rd","Grades_Tau":"EE, PK, KG, 1, 2, 3, 4, 5","Division":"WEST"}},{"type":"Feature","geometry":{"type":"Point","coordinates":[-95.242741,29.772111]},"properties":{"Campus_Nbr":258,"Campus_Sho":"Whittier ES","Street_Add":"10511 Lacrosse St","Grades_Tau":"EE, PK, KG, 1, 2, 3, 4, 5","Division":"CENTRAL"}},{"type":"Feature","geometry":{"type":"Point","coordinates":[-95.637946,29.75393]},"properties":{"Campus_Nbr":36,"Campus_Sho":"Westside HS","Street_Add":"14201 Briar Forest","Grades_Tau":"9, 10, 11, 12","Division":"WEST"}},{"type":"Feature","geometry":{"type":"Point","coordinates":[-95.471115,29.617528]},"properties":{"Campus_Nbr":260,"Campus_Sho":"Windsor Village ES","Street_Add":"14440 Polo St","Grades_Tau":"EE, PK, KG, 1, 2, 3, 4, 5","Division":"SOUTH"}},{"type":"Feature","geometry":{"type":"Point","coordinates":[-95.36696,29.657434]},"properties":{"Campus_Nbr":19,"Campus_Sho":"Worthing HS","Street_Add":"9215 Scott St","Grades_Tau":"9, 10, 11, 12","Division":"SOUTH"}},{"type":"Feature","geometry":{"type":"Point","coordinates":[-95.353725,29.723403]},"properties":{"Campus_Nbr":20,"Campus_Sho":"Yates HS","Street_Add":"3650 Alabama St","Grades_Tau":"9, 10, 11, 12","Division":"SOUTH"}},{"type":"Feature","geometry":{"type":"Point","coordinates":[-95.366482,29.64291]},"properties":{"Campus_Nbr":127,"Campus_Sho":"Woodson","Street_Add":"10720 Southview St","Grades_Tau":"EE, PK, KG, 1, 2, 3, 4, 5","Division":"SOUTH"}},{"type":"Feature","geometry":{"type":"Point","coordinates":[-95.374247,29.730928]},"properties":{"Campus_Nbr":463,"Campus_Sho":"YWCPA","Street_Add":"1906 Cleburne St","Grades_Tau":"6, 7, 8, 9, 10, 11, 12","Division":"CENTRAL"}},{"type":"Feature","geometry":{"type":"Point","coordinates":[-95.499244,29.728921]},"properties":{"Campus_Nbr":9,"Campus_Sho":"Wisdom HS","Street_Add":"6529 Beverly Hill Ln","Grades_Tau":"9, 10, 11, 12","Division":"WEST"}},{"type":"Feature","geometry":{"type":"Point","coordinates":[-95.370991,29.669922]},"properties":{"Campus_Nbr":247,"Campus_Sho":"Young ES","Street_Add":"3555 Bellfort Ave","Grades_Tau":"EE, PK, KG, 1, 2, 3, 4, 5","Division":"SOUTH"}},{"type":"Feature","geometry":{"type":"Point","coordinates":[-95.333072,29.812382]},"properties":{"Campus_Nbr":33,"Campus_Sho":"Barbara Jordan Career Center","Street_Add":"5800 Eastex Freeway","Grades_Tau":null,"Division":"North"}}]}